{
  "type": "FeatureCollection",
  "features": [
    {
      "type": "Feature",
      "properties": {
        "norad_id": 66639,
        "name": "STARLINK-35908",
        "group": "last-30-days",
        "lat": -3.084865183877032,
        "lon": 23.371966961013644,
        "alt_km": 381.59159784396434,
        "timestamp": "2025-12-09T20:37:08.057004+00:00",
        "meta_object_name": "STARLINK-35908",
        "meta_object_id": "2025-271Y",
        "meta_epoch": "2025-12-09T14:00:01.999872",
        "meta_mean_motion": 15.63703354,
        "meta_eccentricity": 9.206e-05,
        "meta_inclination": 53.1593,
        "meta_ra_of_asc_node": 202.4027,
        "meta_arg_of_pericenter": 105.8623,
        "meta_mean_anomaly": 325.2233,
        "meta_ephemeris_type": 0,
        "meta_classification_type": "U",
        "meta_norad_cat_id": 66639,
        "meta_element_set_no": 999,
        "meta_rev_at_epoch": 373,
        "meta_bstar": -0.023748917,
        "meta_mean_motion_dot": -0.01986594,
        "meta_mean_motion_ddot": 0,
        "tle_line1": "1 66639U 25271Y   25343.58335648 -.01986594  00000+0 -23749-1 0  9995",
        "tle_line2": "2 66639  53.1593 202.4027 0000920 105.8623 325.2233 15.63703354  3731"
      },
      "geometry": {
        "type": "Point",
        "coordinates": [
          23.371966961013644,
          -3.084865183877032
        ]
      }
    },
    {
      "type": "Feature",
      "properties": {
        "norad_id": 66640,
        "name": "STARLINK-35921",
        "group": "last-30-days",
        "lat": -4.616869999368625,
        "lon": 24.523548874908396,
        "alt_km": 381.7880847458964,
        "timestamp": "2025-12-09T20:37:08.057014+00:00",
        "meta_object_name": "STARLINK-35921",
        "meta_object_id": "2025-271Z",
        "meta_epoch": "2025-12-09T14:00:01.999872",
        "meta_mean_motion": 15.63702114,
        "meta_eccentricity": 9.58e-05,
        "meta_inclination": 53.1593,
        "meta_ra_of_asc_node": 202.3989,
        "meta_arg_of_pericenter": 106.8071,
        "meta_mean_anomaly": 326.1958,
        "meta_ephemeris_type": 0,
        "meta_classification_type": "U",
        "meta_norad_cat_id": 66640,
        "meta_element_set_no": 999,
        "meta_rev_at_epoch": 373,
        "meta_bstar": -0.023721974,
        "meta_mean_motion_dot": -0.01984554,
        "meta_mean_motion_ddot": 0,
        "tle_line1": "1 66640U 25271Z   25343.58335648 -.01984554  00000+0 -23722-1 0  9992",
        "tle_line2": "2 66640  53.1593 202.3989 0000958 106.8071 326.1958 15.63702114  3735"
      },
      "geometry": {
        "type": "Point",
        "coordinates": [
          24.523548874908396,
          -4.616869999368625
        ]
      }
    },
    {
      "type": "Feature",
      "properties": {
        "norad_id": 66641,
        "name": "STARLINK-35923",
        "group": "last-30-days",
        "lat": -10.716974350391206,
        "lon": 29.19290328820851,
        "alt_km": 382.58634125221215,
        "timestamp": "2025-12-09T20:37:08.057024+00:00",
        "meta_object_name": "STARLINK-35923",
        "meta_object_id": "2025-271AA",
        "meta_epoch": "2025-12-09T14:00:01.999872",
        "meta_mean_motion": 15.63702808,
        "meta_eccentricity": 9.557e-05,
        "meta_inclination": 53.1597,
        "meta_ra_of_asc_node": 202.3819,
        "meta_arg_of_pericenter": 107.817,
        "meta_mean_anomaly": 332.8519,
        "meta_ephemeris_type": 0,
        "meta_classification_type": "U",
        "meta_norad_cat_id": 66641,
        "meta_element_set_no": 999,
        "meta_rev_at_epoch": 373,
        "meta_bstar": -0.023721699,
        "meta_mean_motion_dot": -0.0198458,
        "meta_mean_motion_ddot": 0,
        "tle_line1": "1 66641U 25271AA  25343.58335648 -.01984580  00000+0 -23722-1 0  9992",
        "tle_line2": "2 66641  53.1597 202.3819 0000955 107.8170 332.8519 15.63702808  3737"
      },
      "geometry": {
        "type": "Point",
        "coordinates": [
          29.19290328820851,
          -10.716974350391206
        ]
      }
    },
    {
      "type": "Feature",
      "properties": {
        "norad_id": 66642,
        "name": "STARLINK-35926",
        "group": "last-30-days",
        "lat": -9.194403170810812,
        "lon": 28.0109700971835,
        "alt_km": 382.47408301441556,
        "timestamp": "2025-12-09T20:37:08.057036+00:00",
        "meta_object_name": "STARLINK-35926",
        "meta_object_id": "2025-271AB",
        "meta_epoch": "2025-12-09T14:00:01.999872",
        "meta_mean_motion": 15.63701386,
        "meta_eccentricity": 8.542e-05,
        "meta_inclination": 53.1593,
        "meta_ra_of_asc_node": 202.387,
        "meta_arg_of_pericenter": 102.2139,
        "meta_mean_anomaly": 336.5361,
        "meta_ephemeris_type": 0,
        "meta_classification_type": "U",
        "meta_norad_cat_id": 66642,
        "meta_element_set_no": 999,
        "meta_rev_at_epoch": 349,
        "meta_bstar": -0.023666754,
        "meta_mean_motion_dot": -0.01980371,
        "meta_mean_motion_ddot": 0,
        "tle_line1": "1 66642U 25271AB  25343.58335648 -.01980371  00000+0 -23667-1 0  9995",
        "tle_line2": "2 66642  53.1593 202.3870 0000854 102.2139 336.5361 15.63701386  3492"
      },
      "geometry": {
        "type": "Point",
        "coordinates": [
          28.0109700971835,
          -9.194403170810812
        ]
      }
    },
    {
      "type": "Feature",
      "properties": {
        "norad_id": 66643,
        "name": "STARLINK-35918",
        "group": "last-30-days",
        "lat": -6.1451924845080255,
        "lon": 25.678825812597104,
        "alt_km": 381.9846304918283,
        "timestamp": "2025-12-09T20:37:08.057048+00:00",
        "meta_object_name": "STARLINK-35918",
        "meta_object_id": "2025-271AC",
        "meta_epoch": "2025-12-09T14:00:01.999872",
        "meta_mean_motion": 15.63702275,
        "meta_eccentricity": 0.00010144,
        "meta_inclination": 53.1595,
        "meta_ra_of_asc_node": 202.3952,
        "meta_arg_of_pericenter": 100.6365,
        "meta_mean_anomaly": 334.2805,
        "meta_ephemeris_type": 0,
        "meta_classification_type": "U",
        "meta_norad_cat_id": 66643,
        "meta_element_set_no": 999,
        "meta_rev_at_epoch": 373,
        "meta_bstar": -0.023707039,
        "meta_mean_motion_dot": -0.01983507,
        "meta_mean_motion_ddot": 0,
        "tle_line1": "1 66643U 25271AC  25343.58335648 -.01983507  00000+0 -23707-1 0  9995",
        "tle_line2": "2 66643  53.1595 202.3952 0001014 100.6365 334.2805 15.63702275  3731"
      },
      "geometry": {
        "type": "Point",
        "coordinates": [
          25.678825812597104,
          -6.1451924845080255
        ]
      }
    },
    {
      "type": "Feature",
      "properties": {
        "norad_id": 66644,
        "name": "STARLINK-35938",
        "group": "last-30-days",
        "lat": -7.673478545545724,
        "lon": 26.842192325449577,
        "alt_km": 382.170491670945,
        "timestamp": "2025-12-09T20:37:08.057059+00:00",
        "meta_object_name": "STARLINK-35938",
        "meta_object_id": "2025-271AD",
        "meta_epoch": "2025-12-09T14:00:01.999872",
        "meta_mean_motion": 15.63703565,
        "meta_eccentricity": 9.48e-05,
        "meta_inclination": 53.1595,
        "meta_ra_of_asc_node": 202.391,
        "meta_arg_of_pericenter": 109.3008,
        "meta_mean_anomaly": 327.535,
        "meta_ephemeris_type": 0,
        "meta_classification_type": "U",
        "meta_norad_cat_id": 66644,
        "meta_element_set_no": 999,
        "meta_rev_at_epoch": 373,
        "meta_bstar": -0.023754835,
        "meta_mean_motion_dot": -0.01987063,
        "meta_mean_motion_ddot": 0,
        "tle_line1": "1 66644U 25271AD  25343.58335648 -.01987063  00000+0 -23755-1 0  9990",
        "tle_line2": "2 66644  53.1595 202.3910 0000948 109.3008 327.5350 15.63703565  3734"
      },
      "geometry": {
        "type": "Point",
        "coordinates": [
          26.842192325449577,
          -7.673478545545724
        ]
      }
    },
    {
      "type": "Feature",
      "properties": {
        "norad_id": 66645,
        "name": "SHENZHOU-22",
        "group": "last-30-days",
        "lat": 18.083824959057438,
        "lon": -167.5074873492209,
        "alt_km": 392.51059746662304,
        "timestamp": "2025-12-09T20:37:08.057069+00:00",
        "meta_object_name": "SHENZHOU-22",
        "meta_object_id": "2025-272A",
        "meta_epoch": "2025-12-09T13:49:14.456064",
        "meta_mean_motion": 15.58965688,
        "meta_eccentricity": 0.00089597,
        "meta_inclination": 41.4682,
        "meta_ra_of_asc_node": 35.9133,
        "meta_arg_of_pericenter": 5.1145,
        "meta_mean_anomaly": 354.9784,
        "meta_ephemeris_type": 0,
        "meta_classification_type": "U",
        "meta_norad_cat_id": 66645,
        "meta_element_set_no": 999,
        "meta_rev_at_epoch": 26300,
        "meta_bstar": 0.00041052725,
        "meta_mean_motion_dot": 0.00032682,
        "meta_mean_motion_ddot": 0,
        "tle_line1": "1 66645U 25272A   25343.57586176  .00032682  00000+0  41053-3 0  9993",
        "tle_line2": "2 66645  41.4682  35.9133 0008959   5.1145 354.9784 15.58965688263007"
      },
      "geometry": {
        "type": "Point",
        "coordinates": [
          -167.5074873492209,
          18.083824959057438
        ]
      }
    }
  ]
}